GLOBALSTAR M094         
1 39074U 13005C   24222.90433393 -.00000101  00000+0  16034-4 0  9998
2 39074  51.9966  49.8808 0000646  62.2945 297.7987 12.62266652533066
GLOBALSTAR M096         
1 39075U 13005D   24222.91759438 -.00000064  00000+0  21975-3 0  9998
2 39075  52.0069  98.1135 0000518  32.9698 327.1201 12.62268612531984
GLOBALSTAR M078         
1 39076U 13005E   24222.57444938 -.00000101  00000+0  17339-4 0  9999
2 39076  51.9854 184.0907 0000713 196.7398 163.3445 12.62273533530561
GLOBALSTAR M095         
1 39077U 13005F   24222.91745514 -.00000094  00000+0  53547-4 0  9994
2 39077  51.9782 180.3964 0000412 265.9770  94.1050 12.62262874530461
GLOBALSTAR M087         
1 52888U 22064A   24222.90911827 -.00000074  00000+0  10378-3 0  9997
2 52888  51.9773  21.0539 0009959 137.4289 222.7385 13.37580693104718
